[{"OBJECT_NAME":"EYESAT A (AO-27)","OBJECT_ID":"1993-061C","EPOCH":"2026-03-09T16:58:07.157856","MEAN_MOTION":14.30913089,"ECCENTRICITY":0.00089503,"INCLINATION":98.6982,"RA_OF_ASC_NODE":136.1171,"ARG_OF_PERICENTER":38.8989,"MEAN_ANOMALY":321.2837,"EPHEMERIS_TYPE":0,"CLASSIFICATION_TYPE":"U","NORAD_CAT_ID":22825,"ELEMENT_SET_NO":999,"REV_AT_EPOCH":69277,"BSTAR":7.1797441e-5,"MEAN_MOTION_DOT":1.44e-6,"MEAN_MOTION_DDOT":0},{"OBJECT_NAME":"FENGYUN 1C DEB","OBJECT_ID":"1999-025FX","EPOCH":"2026-03-09T23:43:44.084352","MEAN_MOTION":14.25021543,"ECCENTRICITY":0.00456147,"INCLINATION":98.5393,"RA_OF_ASC_NODE":76.9178,"ARG_OF_PERICENTER":325.9138,"MEAN_ANOMALY":87.8815,"EPHEMERIS_TYPE":0,"CLASSIFICATION_TYPE":"U","NORAD_CAT_ID":29877,"ELEMENT_SET_NO":999,"REV_AT_EPOCH":99216,"BSTAR":0.00060015312,"MEAN_MOTION_DOT":1.378e-5,"MEAN_MOTION_DDOT":0}]
